[Satellite]
VERSION=1.1
NAME=GSAT0213 (PRN E04)
NICKNAME=GSAT0213 (PRN E04)
TLE1=1 41861U 16069C   20155.58320604  .00000080  00000-0  00000+0 0  9990
TLE2=2 41861  54.6499 162.2289 0005413 276.4652  83.5057  1.70473438 22070
STATUS=0
